STARLINK-36455          
1 67418U 26005Q   26027.25001157 -.01913819  00000+0 -15108-1 0  9996
2 67418  42.9999 117.1290 0000976 254.4933 332.6473 15.73862632  3524
STARLINK-36424          
1 67419U 26005R   26027.25001157 -.01962480  00000+0 -15185-1 0  9990
2 67419  42.9997 117.1244 0000816 279.3992 309.6511 15.73870747  3529
STARLINK-35564          
1 67420U 26005S   26027.25001157 -.01897721  00000+0 -14969-1 0  9996
2 67420  42.9998 117.1198 0001214 263.3503 327.6348 15.73847008  3414
STARLINK-36431          
1 67421U 26005T   26027.25001157 -.01909815  00000+0 -15071-1 0  9990
2 67421  43.0001 117.1150 0001319 256.7247 336.1685 15.73859530  3318
STARLINK-36418          
1 67422U 26005U   26027.25001157 -.01909698  00000+0 -15074-1 0  9993
2 67422  42.9998 117.1099 0000910 272.6893 322.1243 15.73857278  3473
STARLINK-36465          
1 67423U 26005V   26027.25001157 -.01904564  00000+0 -15028-1 0  9990
2 67423  43.0002 117.1053 0001143 259.1036 337.6284 15.73853791  3269
STARLINK-36362          
1 67424U 26005W   26027.25001157 -.01914688  00000+0 -15116-1 0  9997
2 67424  43.0000 117.1007 0001088 255.7845 342.8615 15.73861182  3523
STARLINK-36447          
1 67425U 26005X   26027.25001157 -.01903330  00000+0 -15020-1 0  9994
2 67425  43.0000 117.0957 0000963 275.0048 325.5631 15.73851557  3529
STARLINK-36146          
1 67426U 26005Y   26027.25001157 -.01902899  00000+0 -15014-1 0  9997
2 67426  42.9999 117.0906 0001216 254.3179 348.1682 15.73851321  3476
STARLINK-36459          
1 67427U 26005Z   26027.25001157 -.01899250  00000+0 -14983-1 0  9998
2 67427  42.9997 117.0854 0001218 253.5941 350.8126 15.73847186  3441
STARLINK-36464          
1 67428U 26005AA  26027.25001157 -.01904477  00000+0 -15027-1 0  9997
2 67428  42.9999 117.0758 0001141 260.8123 347.4224 15.73853423  3526
STARLINK-36513          
1 67429U 26005AB  26027.25001157 -.01909569  00000+0 -15069-1 0  9991
2 67429  42.9998 117.0712 0001237 264.2686 345.8773 15.73859357  3527
