CCSDS_OMM_VERS = 2.0
CREATION_DATE  = 
ORIGINATOR     = 

OBJECT_NAME    = STARLINK-36455
OBJECT_ID      = 2026-005Q
CENTER_NAME    = EARTH
REF_FRAME      = TEME
TIME_SYSTEM    = UTC
MEAN_ELEMENT_THEORY = SGP/SGP4

EPOCH          = 2026-01-27T06:00:00.999648
MEAN_MOTION    = 15.73862632
ECCENTRICITY   = .00009768
INCLINATION    = 42.9999
RA_OF_ASC_NODE = 117.1290
ARG_OF_PERICENTER = 254.4933
MEAN_ANOMALY   = 332.6473

EPHEMERIS_TYPE = 0
CLASSIFICATION_TYPE = U
NORAD_CAT_ID   = 67418
ELEMENT_SET_NO = 999
REV_AT_EPOCH   = 352
BSTAR          = -.15108033E-1
MEAN_MOTION_DOT = -.1913819E-1
MEAN_MOTION_DDOT = 0

CCSDS_OMM_VERS = 2.0
CREATION_DATE  = 
ORIGINATOR     = 

OBJECT_NAME    = STARLINK-36424
OBJECT_ID      = 2026-005R
CENTER_NAME    = EARTH
REF_FRAME      = TEME
TIME_SYSTEM    = UTC
MEAN_ELEMENT_THEORY = SGP/SGP4

EPOCH          = 2026-01-27T06:00:00.999648
MEAN_MOTION    = 15.73870747
ECCENTRICITY   = .0000816
INCLINATION    = 42.9997
RA_OF_ASC_NODE = 117.1244
ARG_OF_PERICENTER = 279.3992
MEAN_ANOMALY   = 309.6511

EPHEMERIS_TYPE = 0
CLASSIFICATION_TYPE = U
NORAD_CAT_ID   = 67419
ELEMENT_SET_NO = 999
REV_AT_EPOCH   = 352
BSTAR          = -.15184654E-1
MEAN_MOTION_DOT = -.196248E-1
MEAN_MOTION_DDOT = 0

CCSDS_OMM_VERS = 2.0
CREATION_DATE  = 
ORIGINATOR     = 

OBJECT_NAME    = STARLINK-35564
OBJECT_ID      = 2026-005S
CENTER_NAME    = EARTH
REF_FRAME      = TEME
TIME_SYSTEM    = UTC
MEAN_ELEMENT_THEORY = SGP/SGP4

EPOCH          = 2026-01-27T06:00:00.999648
MEAN_MOTION    = 15.73847008
ECCENTRICITY   = .00012146
INCLINATION    = 42.9998
RA_OF_ASC_NODE = 117.1198
ARG_OF_PERICENTER = 263.3503
MEAN_ANOMALY   = 327.6348

EPHEMERIS_TYPE = 0
CLASSIFICATION_TYPE = U
NORAD_CAT_ID   = 67420
ELEMENT_SET_NO = 999
REV_AT_EPOCH   = 341
BSTAR          = -.14969362E-1
MEAN_MOTION_DOT = -.1897721E-1
MEAN_MOTION_DDOT = 0

CCSDS_OMM_VERS = 2.0
CREATION_DATE  = 
ORIGINATOR     = 

OBJECT_NAME    = STARLINK-36431
OBJECT_ID      = 2026-005T
CENTER_NAME    = EARTH
REF_FRAME      = TEME
TIME_SYSTEM    = UTC
MEAN_ELEMENT_THEORY = SGP/SGP4

EPOCH          = 2026-01-27T06:00:00.999648
MEAN_MOTION    = 15.73859530
ECCENTRICITY   = .00013192
INCLINATION    = 43.0001
RA_OF_ASC_NODE = 117.1150
ARG_OF_PERICENTER = 256.7247
MEAN_ANOMALY   = 336.1685

EPHEMERIS_TYPE = 0
CLASSIFICATION_TYPE = U
NORAD_CAT_ID   = 67421
ELEMENT_SET_NO = 999
REV_AT_EPOCH   = 331
BSTAR          = -.15070715E-1
MEAN_MOTION_DOT = -.1909815E-1
MEAN_MOTION_DDOT = 0

CCSDS_OMM_VERS = 2.0
CREATION_DATE  = 
ORIGINATOR     = 

OBJECT_NAME    = STARLINK-36418
OBJECT_ID      = 2026-005U
CENTER_NAME    = EARTH
REF_FRAME      = TEME
TIME_SYSTEM    = UTC
MEAN_ELEMENT_THEORY = SGP/SGP4

EPOCH          = 2026-01-27T06:00:00.999648
MEAN_MOTION    = 15.73857278
ECCENTRICITY   = .00009107
INCLINATION    = 42.9998
RA_OF_ASC_NODE = 117.1099
ARG_OF_PERICENTER = 272.6893
MEAN_ANOMALY   = 322.1243

EPHEMERIS_TYPE = 0
CLASSIFICATION_TYPE = U
NORAD_CAT_ID   = 67422
ELEMENT_SET_NO = 999
REV_AT_EPOCH   = 347
BSTAR          = -.15074398E-1
MEAN_MOTION_DOT = -.1909698E-1
MEAN_MOTION_DDOT = 0

CCSDS_OMM_VERS = 2.0
CREATION_DATE  = 
ORIGINATOR     = 

OBJECT_NAME    = STARLINK-36465
OBJECT_ID      = 2026-005V
CENTER_NAME    = EARTH
REF_FRAME      = TEME
TIME_SYSTEM    = UTC
MEAN_ELEMENT_THEORY = SGP/SGP4

EPOCH          = 2026-01-27T06:00:00.999648
MEAN_MOTION    = 15.73853791
ECCENTRICITY   = .00011435
INCLINATION    = 43.0002
RA_OF_ASC_NODE = 117.1053
ARG_OF_PERICENTER = 259.1036
MEAN_ANOMALY   = 337.6284

EPHEMERIS_TYPE = 0
CLASSIFICATION_TYPE = U
NORAD_CAT_ID   = 67423
ELEMENT_SET_NO = 999
REV_AT_EPOCH   = 326
BSTAR          = -.15027942E-1
MEAN_MOTION_DOT = -.1904564E-1
MEAN_MOTION_DDOT = 0

CCSDS_OMM_VERS = 2.0
CREATION_DATE  = 
ORIGINATOR     = 

OBJECT_NAME    = STARLINK-36362
OBJECT_ID      = 2026-005W
CENTER_NAME    = EARTH
REF_FRAME      = TEME
TIME_SYSTEM    = UTC
MEAN_ELEMENT_THEORY = SGP/SGP4

EPOCH          = 2026-01-27T06:00:00.999648
MEAN_MOTION    = 15.73861182
ECCENTRICITY   = .00010884
INCLINATION    = 43.0000
RA_OF_ASC_NODE = 117.1007
ARG_OF_PERICENTER = 255.7845
MEAN_ANOMALY   = 342.8615

EPHEMERIS_TYPE = 0
CLASSIFICATION_TYPE = U
NORAD_CAT_ID   = 67424
ELEMENT_SET_NO = 999
REV_AT_EPOCH   = 352
BSTAR          = -.15116051E-1
MEAN_MOTION_DOT = -.1914688E-1
MEAN_MOTION_DDOT = 0

CCSDS_OMM_VERS = 2.0
CREATION_DATE  = 
ORIGINATOR     = 

OBJECT_NAME    = STARLINK-36447
OBJECT_ID      = 2026-005X
CENTER_NAME    = EARTH
REF_FRAME      = TEME
TIME_SYSTEM    = UTC
MEAN_ELEMENT_THEORY = SGP/SGP4

EPOCH          = 2026-01-27T06:00:00.999648
MEAN_MOTION    = 15.73851557
ECCENTRICITY   = .0000963
INCLINATION    = 43.0000
RA_OF_ASC_NODE = 117.0957
ARG_OF_PERICENTER = 275.0048
MEAN_ANOMALY   = 325.5631

EPHEMERIS_TYPE = 0
CLASSIFICATION_TYPE = U
NORAD_CAT_ID   = 67425
ELEMENT_SET_NO = 999
REV_AT_EPOCH   = 352
BSTAR          = -.15019563E-1
MEAN_MOTION_DOT = -.190333E-1
MEAN_MOTION_DDOT = 0

CCSDS_OMM_VERS = 2.0
CREATION_DATE  = 
ORIGINATOR     = 

OBJECT_NAME    = STARLINK-36146
OBJECT_ID      = 2026-005Y
CENTER_NAME    = EARTH
REF_FRAME      = TEME
TIME_SYSTEM    = UTC
MEAN_ELEMENT_THEORY = SGP/SGP4

EPOCH          = 2026-01-27T06:00:00.999648
MEAN_MOTION    = 15.73851321
ECCENTRICITY   = .00012162
INCLINATION    = 42.9999
RA_OF_ASC_NODE = 117.0906
ARG_OF_PERICENTER = 254.3179
MEAN_ANOMALY   = 348.1682

EPHEMERIS_TYPE = 0
CLASSIFICATION_TYPE = U
NORAD_CAT_ID   = 67426
ELEMENT_SET_NO = 999
REV_AT_EPOCH   = 347
BSTAR          = -.15013779E-1
MEAN_MOTION_DOT = -.1902899E-1
MEAN_MOTION_DDOT = 0

CCSDS_OMM_VERS = 2.0
CREATION_DATE  = 
ORIGINATOR     = 

OBJECT_NAME    = STARLINK-36459
OBJECT_ID      = 2026-005Z
CENTER_NAME    = EARTH
REF_FRAME      = TEME
TIME_SYSTEM    = UTC
MEAN_ELEMENT_THEORY = SGP/SGP4

EPOCH          = 2026-01-27T06:00:00.999648
MEAN_MOTION    = 15.73847186
ECCENTRICITY   = .00012189
INCLINATION    = 42.9997
RA_OF_ASC_NODE = 117.0854
ARG_OF_PERICENTER = 253.5941
MEAN_ANOMALY   = 350.8126

EPHEMERIS_TYPE = 0
CLASSIFICATION_TYPE = U
NORAD_CAT_ID   = 67427
ELEMENT_SET_NO = 999
REV_AT_EPOCH   = 344
BSTAR          = -.14983153E-1
MEAN_MOTION_DOT = -.189925E-1
MEAN_MOTION_DDOT = 0

CCSDS_OMM_VERS = 2.0
CREATION_DATE  = 
ORIGINATOR     = 

OBJECT_NAME    = STARLINK-36464
OBJECT_ID      = 2026-005AA
CENTER_NAME    = EARTH
REF_FRAME      = TEME
TIME_SYSTEM    = UTC
MEAN_ELEMENT_THEORY = SGP/SGP4

EPOCH          = 2026-01-27T06:00:00.999648
MEAN_MOTION    = 15.73853423
ECCENTRICITY   = .00011412
INCLINATION    = 42.9999
RA_OF_ASC_NODE = 117.0758
ARG_OF_PERICENTER = 260.8123
MEAN_ANOMALY   = 347.4224

EPHEMERIS_TYPE = 0
CLASSIFICATION_TYPE = U
NORAD_CAT_ID   = 67428
ELEMENT_SET_NO = 999
REV_AT_EPOCH   = 352
BSTAR          = -.15027406E-1
MEAN_MOTION_DOT = -.1904477E-1
MEAN_MOTION_DDOT = 0

CCSDS_OMM_VERS = 2.0
CREATION_DATE  = 
ORIGINATOR     = 

OBJECT_NAME    = STARLINK-36513
OBJECT_ID      = 2026-005AB
CENTER_NAME    = EARTH
REF_FRAME      = TEME
TIME_SYSTEM    = UTC
MEAN_ELEMENT_THEORY = SGP/SGP4

EPOCH          = 2026-01-27T06:00:00.999648
MEAN_MOTION    = 15.73859357
ECCENTRICITY   = .00012377
INCLINATION    = 42.9998
RA_OF_ASC_NODE = 117.0712
ARG_OF_PERICENTER = 264.2686
MEAN_ANOMALY   = 345.8773

EPHEMERIS_TYPE = 0
CLASSIFICATION_TYPE = U
NORAD_CAT_ID   = 67429
ELEMENT_SET_NO = 999
REV_AT_EPOCH   = 352
BSTAR          = -.15069243E-1
MEAN_MOTION_DOT = -.1909569E-1
MEAN_MOTION_DDOT = 0

